STARLINK-2022           
1 47643U 21012Z   23285.05877189  .00002539  00000+0  18934-3 0  9991
2 47643  53.0559  40.4359 0001961 104.7422 255.3784 15.06389369147168
